{"type": "FeatureCollection", "features": [
{"id":"a806e9ec-29ca-3475-b1f9-235492ab6c69","type":"Feature","geometry":{"type":"LineString","coordinates":[[80.8573795,26.8340704],[80.8604452,26.8345912],[80.8613516,26.83473],[80.8663369,26.8356174],[80.8682595,26.8360042],[80.8704971,26.8364916],[80.8720579,26.8368175],[80.8734917,26.8371486],[80.8745639,26.8374001],[80.8756993,26.8376209],[80.8759138,26.8376527],[80.8770966,26.8377036],[80.8789706,26.837773],[80.880279,26.8378164],[80.8817671,26.8378063],[80.8827605,26.8378549],[80.8847842,26.8378962],[80.8858097,26.8377931],[80.8866702,26.8377809],[80.8873218,26.8377367],[80.8876847,26.8376116],[80.8880833,26.8375944],[80.8887101,26.8376484],[80.8894772,26.8376067],[80.8908161,26.8374129],[80.8916051,26.8372436],[80.8922787,26.8370964],[80.8927488,26.8367849],[80.8934141,26.8365175],[80.8939612,26.8363752],[80.8950142,26.8359974],[80.8962541,26.8356883],[80.8974033,26.8352762],[80.8984425,26.8348444],[80.8995064,26.8344127],[80.9002048,26.8341453],[80.9009938,26.8339171],[80.9019753,26.8335982],[80.9031519,26.8333774],[80.9045816,26.8332768],[80.9053926,26.8332278],[80.9062201,26.8330879],[80.9070729,26.8327662],[80.9073219,26.8327193],[80.907637,26.8327245],[80.9079579,26.8326395],[80.908094,26.8326551],[80.9082166,26.8327263],[80.9084013,26.8328026],[80.9089459,26.8328061],[80.9095061,26.8328929],[80.9106147,26.8332053],[80.9119956,26.8335698],[80.91276,26.833752],[80.9134796,26.8339741],[80.9139639,26.8340383],[80.9151169,26.8344077],[80.9161561,26.8345932],[80.9179069,26.8347953],[80.9203105,26.8350307],[80.9216429,26.8351306],[80.9225249,26.8352399],[80.9250031,26.8354706],[80.9260131,26.8355324],[80.9268018,26.8354753],[80.9278651,26.8353327],[80.9293786,26.8350473],[80.9303939,26.8347763],[80.9317535,26.8343251],[80.9342596,26.833244],[80.9360515,26.8324758],[80.9371865,26.8320405],[80.9377413,26.8318726],[80.9381845,26.8318442],[80.9388573,26.8320376],[80.9406842,26.8326493],[80.9411497,26.8327944],[80.9420999,26.833298],[80.9428938,26.8337475],[80.9442967,26.8347945],[80.9449216,26.8354233],[80.9454391,26.836018],[80.9469143,26.8377135],[80.9485607,26.8395957],[80.9488312,26.8398914],[80.9497083,26.8408235],[80.9503696,26.8414456],[80.9507861,26.8418104],[80.9511535,26.8420223],[80.9515454,26.8422677]]},"properties":{"subtype":"canal","class":"drain","sources":[{"property":"","dataset":"OpenStreetMap","license":"ODbL-1.0","record_id":"w209615130@8","update_time":"2021-12-19T14:43:59.000Z","confidence":null,"between":null}],"source_tags":[["waterway","drain"]],"version":0}},
{"id":"e7ec2d52-84fa-327f-bb81-c2b2b5ef85ba","type":"Feature","geometry":{"type":"Polygon","coordinates":[[[80.9429068,26.85294],[80.9431696,26.852794],[80.9432501,26.8528921],[80.9429845,26.8530453],[80.9429068,26.85294]]]},"properties":{"subtype":"human_made","class":"swimming_pool","sources":[{"property":"","dataset":"OpenStreetMap","license":"ODbL-1.0","record_id":"w416085608@1","update_time":"2016-05-06T09:44:10.000Z","confidence":null,"between":null}],"source_tags":[["access","private"],["leisure","swimming_pool"]],"version":0}},
{"id":"29d8df7f-7e33-3339-8920-96d1f374d660","type":"Feature","geometry":{"type":"LineString","coordinates":[[80.8845234,26.8903778],[80.8847594,26.8898898],[80.8849686,26.8895597],[80.8852422,26.8893109],[80.8857465,26.8890956],[80.8863634,26.8889042],[80.8871949,26.8886842],[80.8882356,26.8884976],[80.8891529,26.8883684],[80.8900058,26.8882918],[80.8912933,26.8881531],[80.8925164,26.8880813],[80.8938521,26.8880335],[80.8952683,26.8880526],[80.8958745,26.8881531],[80.8969474,26.8882248],[80.8978325,26.8880957],[80.8988199,26.8877667],[80.8992112,26.8876364],[80.9003109,26.8871435],[80.9011477,26.886646],[80.9029542,26.8854204],[80.904711,26.8861476],[80.9076511,26.8880432],[80.9091961,26.8890384],[80.9106123,26.8893446],[80.9122002,26.8883494],[80.9132301,26.8873159],[80.9136593,26.8858614],[80.9120285,26.8844452],[80.9108564,26.8820282],[80.9096681,26.8805791],[80.9096681,26.8787801],[80.9114861,26.8756617],[80.9118997,26.8749521],[80.9130687,26.8741805],[80.9140455,26.8735357],[80.9166233,26.8723058],[80.9195816,26.8708943],[80.9218721,26.8699975],[80.9239027,26.8685536],[80.9272205,26.8658027],[80.9292805,26.8635823],[80.9310829,26.8610555],[80.9331428,26.8592178],[80.9336009,26.8589285],[80.9344242,26.8585327],[80.9351191,26.8583324],[80.9356751,26.8582942],[80.9362364,26.8582847],[80.9368672,26.858361],[80.9376209,26.8586519],[80.9382891,26.859],[80.9389787,26.8593243],[80.9398501,26.8595914],[80.9410101,26.8599109],[80.9430896,26.8603592],[80.9450033,26.8607407],[80.9465589,26.8610554],[80.948756,26.8614274],[80.9513807,26.8619663],[80.9528882,26.8622572],[80.9541658,26.8624432],[80.9552403,26.8625338],[80.9561384,26.8625386],[80.9570097,26.8624813],[80.9583301,26.8621857],[80.9589021,26.8620521],[80.9595008,26.8619139],[80.9599071,26.8618757],[80.9606341,26.8618328],[80.9614574,26.8618805],[80.9619385,26.8618757],[80.9625158,26.861828],[80.9636117,26.8615466],[80.9645507,26.8611685],[80.9653361,26.8606999],[80.9668231,26.8594805],[80.9671277,26.8592472],[80.9676129,26.8588836],[80.9692389,26.8567444],[80.9696477,26.8556943],[80.9699673,26.8543211],[80.9701311,26.8535038],[80.9702691,26.8516629],[80.9705395,26.849963],[80.9704148,26.8467455],[80.9700071,26.8451278],[80.9696274,26.8431886],[80.9688765,26.84152],[80.9676822,26.8407629],[80.9668722,26.8390812],[80.9669024,26.8375701],[80.9675847,26.8340413],[80.9687063,26.8327155],[80.9729978,26.8308774],[80.9761077,26.8297906],[80.9796926,26.8294987],[80.9848367,26.8299591],[80.9896261,26.8313684],[80.9929052,26.8335022],[80.9932395,26.8337197],[80.99417,26.8339568],[80.9949154,26.8340117],[80.9953496,26.8338381],[80.9953828,26.833544],[80.995263,26.8332869],[80.9949569,26.8318608],[80.9942712,26.8304862],[80.9940361,26.8293918],[80.9940092,26.8282805],[80.9943641,26.8272903],[80.9947585,26.8267228],[80.9954226,26.8262861],[80.9969814,26.8259911],[80.9990672,26.8256842],[81.0017491,26.8253308],[81.0031075,26.8250229],[81.0041205,26.8246517],[81.0053161,26.823608],[81.0064265,26.8226235],[81.0080167,26.8201542],[81.0084607,26.818355],[81.0089284,26.8167712],[81.0089612,26.8166557],[81.0090954,26.8161837],[81.0096504,26.8156723],[81.0108203,26.8155121],[81.0117936,26.8157559],[81.0135056,26.8167772],[81.015388,26.8173087],[81.018733,26.8183956],[81.0249163,26.821413],[81.0273047,26.8219686],[81.0298583,26.8215377],[81.0328566,26.8207441],[81.0386625,26.818057],[81.0433123,26.8159482],[81.0462851,26.8145422],[81.0471441,26.8144167],[81.0480764,26.8152679],[81.0489784,26.8164357],[81.0494866,26.8177963],[81.0494358,26.8186579],[81.0494147,26.8200089],[81.0502997,26.8226601],[81.0512271,26.8235898],[81.0519005,26.8237599],[81.0526627,26.8235558],[81.0532471,26.8228415],[81.0542762,26.8203019],[81.0553179,26.8190434],[81.0564443,26.8186244],[81.0580925,26.8186526],[81.0590403,26.8192475],[81.0595107,26.8200285],[81.0596051,26.821294],[81.0595907,26.8226018],[81.0593689,26.8252031],[81.0590911,26.826889],[81.0589895,26.8283741],[81.0590482,26.8289509],[81.059269,26.8293944],[81.0595587,26.8297168],[81.0601172,26.8297994],[81.060777,26.8296769],[81.0614796,26.8293944],[81.0618153,26.8292216],[81.0620126,26.8290876],[81.0632635,26.828409],[81.0643479,26.8281389],[81.0652024,26.8281159],[81.0657227,26.8281111],[81.0663396,26.8281877],[81.0674339,26.8285419],[81.0681367,26.828877],[81.0693117,26.8288308],[81.0701679,26.8289674],[81.0709315,26.8290972],[81.0717577,26.8290376],[81.0724711,26.8287286],[81.0733616,26.8284318],[81.0736942,26.8283887],[81.0742789,26.828384],[81.074883,26.8284714],[81.0754645,26.8286568],[81.0763979,26.8293078],[81.0774547,26.83027],[81.0784954,26.8309881],[81.0793751,26.831505],[81.0803449,26.8319665],[81.0846209,26.8338583],[81.0899571,26.8361188],[81.0939097,26.8376418],[81.0963712,26.8388281],[81.0986709,26.8399022],[81.1003239,26.8402228],[81.1019647,26.8401546]]},"properties":{"names":{"primary":"Gomtī","common":[["en","Gomti River"],["hi","गोमती"]],"rules":null},"subtype":"river","class":"river","sources":[{"property":"","dataset":"OpenStreetMap","license":"ODbL-1.0","record_id":"w44426263@15","update_time":"2025-12-06T11:37:38.000Z","confidence":null,"between":null}],"source_tags":[["waterway","river"]],"version":0}},
{"id":"c065e043-ffdc-321a-a711-c54a738356d2","type":"Feature","geometry":{"type":"Polygon","coordinates":[[[80.9545213,26.8476241],[80.9544747,26.8476057],[80.9544342,26.8475673],[80.9544224,26.8475146],[80.9544555,26.8474645],[80.9544934,26.8474268],[80.9545353,26.8474112],[80.9545911,26.8474285],[80.9546001,26.8474782],[80.9546283,26.8475112],[80.9546831,26.8475418],[80.9547267,26.8475789],[80.9547576,26.847623],[80.9547334,26.8476822],[80.9546952,26.8477258],[80.9546443,26.8477652],[80.9545864,26.8477613],[80.9545483,26.8477172],[80.9545224,26.8476839],[80.9545098,26.8476513],[80.9545213,26.8476241]]]},"properties":{"subtype":"pond","class":"pond","sources":[{"property":"","dataset":"OpenStreetMap","license":"ODbL-1.0","record_id":"w971772569@1","update_time":"2021-08-09T20:29:27.000Z","confidence":null,"between":null}],"source_tags":[["natural","water"],["water","pond"]],"version":0}},
{"id":"4adccd8f-dcd5-3cf5-bfb2-b1150b23b38b","type":"Feature","geometry":{"type":"LineString","coordinates":[[80.9519091,26.8424006],[80.9519942,26.8424606],[80.953448,26.8428332],[80.9538865,26.8429806],[80.95477,26.8432823],[80.9555524,26.84354],[80.9561047,26.8437231],[80.9563764,26.8438172],[80.9565792,26.8439216],[80.9567489,26.8440506],[80.9572983,26.8444416],[80.9576454,26.8447119],[80.9580751,26.845028],[80.9584621,26.8453322],[80.9586462,26.8455307],[80.9592052,26.8461403],[80.9594656,26.8464207],[80.9597364,26.8466601],[80.9599059,26.8467403],[80.9600016,26.8468032],[80.9603232,26.8471828],[80.9607571,26.847727],[80.9609561,26.8479921],[80.9612039,26.8482203],[80.9617223,26.8486513],[80.9626576,26.8493916],[80.9631234,26.8497384],[80.9634767,26.8500111],[80.9636053,26.8502424],[80.9636747,26.8503564],[80.9637472,26.8504104],[80.9639884,26.8505611],[80.9648476,26.851075]]},"properties":{"subtype":"canal","class":"drain","sources":[{"property":"","dataset":"OpenStreetMap","license":"ODbL-1.0","record_id":"w210669880@3","update_time":"2025-12-05T10:35:42.000Z","confidence":null,"between":null}],"source_tags":[["waterway","drain"]],"version":0}},
{"id":"f61eb631-cc20-381f-8b3a-719809821079","type":"Feature","geometry":{"type":"LineString","coordinates":[[80.9515454,26.8422677],[80.9519091,26.8424006]]},"properties":{"subtype":"canal","class":"drain","sources":[{"property":"","dataset":"OpenStreetMap","license":"ODbL-1.0","record_id":"w210669879@1","update_time":"2013-03-17T23:31:44.000Z","confidence":null,"between":null}],"source_tags":[["tunnel","yes"],["waterway","drain"]],"level":-1,"version":0}}]}